[{"OBJECT_NAME":"SKYSAT-A","OBJECT_ID":"2013-066C","EPOCH":"2026-03-04T01:51:48.421728","MEAN_MOTION":15.12304975,"ECCENTRICITY":0.0020541,"INCLINATION":97.3964,"RA_OF_ASC_NODE":115.7952,"ARG_OF_PERICENTER":321.1305,"MEAN_ANOMALY":38.8448,"EPHEMERIS_TYPE":0,"CLASSIFICATION_TYPE":"U","NORAD_CAT_ID":39418,"ELEMENT_SET_NO":999,"REV_AT_EPOCH":67259,"BSTAR":0.0003099,"MEAN_MOTION_DOT":5.329e-5,"MEAN_MOTION_DDOT":0},{"OBJECT_NAME":"SKYSAT-B","OBJECT_ID":"2014-037D","EPOCH":"2026-03-03T19:27:36.316800","MEAN_MOTION":14.87697185,"ECCENTRICITY":0.00042017,"INCLINATION":98.372,"RA_OF_ASC_NODE":15.8691,"ARG_OF_PERICENTER":258.6689,"MEAN_ANOMALY":101.4054,"EPHEMERIS_TYPE":0,"CLASSIFICATION_TYPE":"U","NORAD_CAT_ID":40072,"ELEMENT_SET_NO":999,"REV_AT_EPOCH":63029,"BSTAR":0.00031362475,"MEAN_MOTION_DOT":2.796e-5,"MEAN_MOTION_DDOT":0},{"OBJECT_NAME":"SKYSAT-C1","OBJECT_ID":"2016-040C","EPOCH":"2026-03-04T00:39:23.083200","MEAN_MOTION":15.34372744,"ECCENTRICITY":0.0003952,"INCLINATION":96.9703,"RA_OF_ASC_NODE":100.5072,"ARG_OF_PERICENTER":64.6363,"MEAN_ANOMALY":295.529,"EPHEMERIS_TYPE":0,"CLASSIFICATION_TYPE":"U","NORAD_CAT_ID":41601,"ELEMENT_SET_NO":999,"REV_AT_EPOCH":54173,"BSTAR":0.00040737,"MEAN_MOTION_DOT":0.00013497,"MEAN_MOTION_DDOT":0},{"OBJECT_NAME":"SKYSAT-C4","OBJECT_ID":"2016-058B","EPOCH":"2026-03-04T03:37:32.881728","MEAN_MOTION":15.45142845,"ECCENTRICITY":8.6e-5,"INCLINATION":96.929,"RA_OF_ASC_NODE":89.506,"ARG_OF_PERICENTER":82.9746,"MEAN_ANOMALY":277.1602,"EPHEMERIS_TYPE":0,"CLASSIFICATION_TYPE":"U","NORAD_CAT_ID":41771,"ELEMENT_SET_NO":999,"REV_AT_EPOCH":52923,"BSTAR":0.00050003,"MEAN_MOTION_DOT":0.00023646,"MEAN_MOTION_DDOT":0},{"OBJECT_NAME":"SKYSAT-C5","OBJECT_ID":"2016-058C","EPOCH":"2026-03-04T00:29:58.007328","MEAN_MOTION":15.34158742,"ECCENTRICITY":0.0001878,"INCLINATION":97.0623,"RA_OF_ASC_NODE":108.3298,"ARG_OF_PERICENTER":85.6544,"MEAN_ANOMALY":274.4915,"EPHEMERIS_TYPE":0,"CLASSIFICATION_TYPE":"U","NORAD_CAT_ID":41772,"ELEMENT_SET_NO":999,"REV_AT_EPOCH":52762,"BSTAR":0.00037953,"MEAN_MOTION_DOT":0.0001248,"MEAN_MOTION_DDOT":0},{"OBJECT_NAME":"SKYSAT-C2","OBJECT_ID":"2016-058D","EPOCH":"2026-03-04T01:17:30.262272","MEAN_MOTION":15.39520258,"ECCENTRICITY":0.0005284,"INCLINATION":97.028,"RA_OF_ASC_NODE":89.2282,"ARG_OF_PERICENTER":81.1583,"MEAN_ANOMALY":279.0262,"EPHEMERIS_TYPE":0,"CLASSIFICATION_TYPE":"U","NORAD_CAT_ID":41773,"ELEMENT_SET_NO":999,"REV_AT_EPOCH":52886,"BSTAR":0.00045017,"MEAN_MOTION_DOT":0.00017629,"MEAN_MOTION_DDOT":0},{"OBJECT_NAME":"SKYSAT-C3","OBJECT_ID":"2016-058E","EPOCH":"2026-03-04T01:32:18.354912","MEAN_MOTION":15.48020744,"ECCENTRICITY":0.0001528,"INCLINATION":96.9182,"RA_OF_ASC_NODE":98.1747,"ARG_OF_PERICENTER":100.848,"MEAN_ANOMALY":259.2944,"EPHEMERIS_TYPE":0,"CLASSIFICATION_TYPE":"U","NORAD_CAT_ID":41774,"ELEMENT_SET_NO":999,"REV_AT_EPOCH":52982,"BSTAR":0.00058203,"MEAN_MOTION_DOT":0.00030426,"MEAN_MOTION_DDOT":0},{"OBJECT_NAME":"SKYSAT-C11","OBJECT_ID":"2017-068A","EPOCH":"2026-03-04T04:08:25.981152","MEAN_MOTION":15.51981525,"ECCENTRICITY":7.63e-5,"INCLINATION":97.4189,"RA_OF_ASC_NODE":207.9762,"ARG_OF_PERICENTER":86.0319,"MEAN_ANOMALY":274.1021,"EPHEMERIS_TYPE":0,"CLASSIFICATION_TYPE":"U","NORAD_CAT_ID":42987,"ELEMENT_SET_NO":999,"REV_AT_EPOCH":46692,"BSTAR":0.00062488,"MEAN_MOTION_DOT":0.00037591,"MEAN_MOTION_DDOT":0},{"OBJECT_NAME":"SKYSAT-C10","OBJECT_ID":"2017-068B","EPOCH":"2026-03-03T07:59:54.934080","MEAN_MOTION":15.32490656,"ECCENTRICITY":0.00011597,"INCLINATION":97.4325,"RA_OF_ASC_NODE":198.4163,"ARG_OF_PERICENTER":90.6134,"MEAN_ANOMALY":269.524,"EPHEMERIS_TYPE":0,"CLASSIFICATION_TYPE":"U","NORAD_CAT_ID":42988,"ELEMENT_SET_NO":999,"REV_AT_EPOCH":46613,"BSTAR":0.00043641716,"MEAN_MOTION_DOT":0.00013622,"MEAN_MOTION_DDOT":0},{"OBJECT_NAME":"SKYSAT-C9","OBJECT_ID":"2017-068C","EPOCH":"2026-03-03T19:05:25.267776","MEAN_MOTION":15.3865572,"ECCENTRICITY":0.0009683,"INCLINATION":97.4252,"RA_OF_ASC_NODE":198.8673,"ARG_OF_PERICENTER":152.1934,"MEAN_ANOMALY":207.9831,"EPHEMERIS_TYPE":0,"CLASSIFICATION_TYPE":"U","NORAD_CAT_ID":42989,"ELEMENT_SET_NO":999,"REV_AT_EPOCH":46653,"BSTAR":0.00054646,"MEAN_MOTION_DOT":0.00020845,"MEAN_MOTION_DDOT":0},{"OBJECT_NAME":"SKYSAT-C8","OBJECT_ID":"2017-068D","EPOCH":"2026-03-03T07:49:51.608928","MEAN_MOTION":15.34560506,"ECCENTRICITY":0.00012586,"INCLINATION":97.435,"RA_OF_ASC_NODE":197.8254,"ARG_OF_PERICENTER":113.2685,"MEAN_ANOMALY":246.869,"EPHEMERIS_TYPE":0,"CLASSIFICATION_TYPE":"U","NORAD_CAT_ID":42990,"ELEMENT_SET_NO":999,"REV_AT_EPOCH":46606,"BSTAR":0.00020005058,"MEAN_MOTION_DOT":6.617e-5,"MEAN_MOTION_DDOT":0},{"OBJECT_NAME":"SKYSAT-C7","OBJECT_ID":"2017-068E","EPOCH":"2026-03-03T20:06:29.466720","MEAN_MOTION":15.34530913,"ECCENTRICITY":0.0007383,"INCLINATION":97.4356,"RA_OF_ASC_NODE":199.3239,"ARG_OF_PERICENTER":121.7201,"MEAN_ANOMALY":238.4762,"EPHEMERIS_TYPE":0,"CLASSIFICATION_TYPE":"U","NORAD_CAT_ID":42991,"ELEMENT_SET_NO":999,"REV_AT_EPOCH":46620,"BSTAR":0.00051767,"MEAN_MOTION_DOT":0.0001727,"MEAN_MOTION_DDOT":0},{"OBJECT_NAME":"SKYSAT-C6","OBJECT_ID":"2017-068F","EPOCH":"2026-03-03T19:49:27.562080","MEAN_MOTION":15.32572793,"ECCENTRICITY":0.0003553,"INCLINATION":97.439,"RA_OF_ASC_NODE":199.6136,"ARG_OF_PERICENTER":126.2728,"MEAN_ANOMALY":233.8842,"EPHEMERIS_TYPE":0,"CLASSIFICATION_TYPE":"U","NORAD_CAT_ID":42992,"ELEMENT_SET_NO":999,"REV_AT_EPOCH":46617,"BSTAR":0.00048994,"MEAN_MOTION_DOT":0.00015348,"MEAN_MOTION_DDOT":0},{"OBJECT_NAME":"SKYSAT-C12","OBJECT_ID":"2018-099AR","EPOCH":"2026-03-04T01:27:34.289856","MEAN_MOTION":15.45361946,"ECCENTRICITY":0.0004935,"INCLINATION":96.9377,"RA_OF_ASC_NODE":90.7179,"ARG_OF_PERICENTER":152.7288,"MEAN_ANOMALY":207.4222,"EPHEMERIS_TYPE":0,"CLASSIFICATION_TYPE":"U","NORAD_CAT_ID":43797,"ELEMENT_SET_NO":999,"REV_AT_EPOCH":40560,"BSTAR":0.00049589,"MEAN_MOTION_DOT":0.00023634,"MEAN_MOTION_DDOT":0},{"OBJECT_NAME":"SKYSAT-C13","OBJECT_ID":"2018-099AW","EPOCH":"2026-03-04T01:52:18.982272","MEAN_MOTION":15.75591683,"ECCENTRICITY":0.000341,"INCLINATION":96.9414,"RA_OF_ASC_NODE":110.7046,"ARG_OF_PERICENTER":220.9962,"MEAN_ANOMALY":139.1048,"EPHEMERIS_TYPE":0,"CLASSIFICATION_TYPE":"U","NORAD_CAT_ID":43802,"ELEMENT_SET_NO":999,"REV_AT_EPOCH":40628,"BSTAR":0.00067172,"MEAN_MOTION_DOT":0.00103078,"MEAN_MOTION_DDOT":0},{"OBJECT_NAME":"FLOCK 4Q-16","OBJECT_ID":"2023-174R","EPOCH":"2026-03-04T04:25:13.116576","MEAN_MOTION":15.44433782,"ECCENTRICITY":0.0007878,"INCLINATION":97.3873,"RA_OF_ASC_NODE":149.2222,"ARG_OF_PERICENTER":175.6207,"MEAN_ANOMALY":184.5111,"EPHEMERIS_TYPE":0,"CLASSIFICATION_TYPE":"U","NORAD_CAT_ID":58271,"ELEMENT_SET_NO":999,"REV_AT_EPOCH":12934,"BSTAR":0.00079005,"MEAN_MOTION_DOT":0.00036612,"MEAN_MOTION_DDOT":0},{"OBJECT_NAME":"FLOCK 4Q-11","OBJECT_ID":"2023-174T","EPOCH":"2026-03-04T04:37:38.697600","MEAN_MOTION":15.44806147,"ECCENTRICITY":0.0007574,"INCLINATION":97.3913,"RA_OF_ASC_NODE":149.7053,"ARG_OF_PERICENTER":173.3114,"MEAN_ANOMALY":186.8237,"EPHEMERIS_TYPE":0,"CLASSIFICATION_TYPE":"U","NORAD_CAT_ID":58273,"ELEMENT_SET_NO":999,"REV_AT_EPOCH":12935,"BSTAR":0.00080166,"MEAN_MOTION_DOT":0.00037625,"MEAN_MOTION_DDOT":0}]
