SKYSAT-A                
1 39418U 13066C   26063.07764377  .00005329  00000+0  30990-3 0  9991
2 39418  97.3964 115.7952 0020541 321.1305  38.8448 15.12304975672593
SKYSAT-B                
1 40072U 14037D   26062.81083700  .00002796  00000+0  31362-3 0  9992
2 40072  98.3720  15.8691 0004201 258.6689 101.4054 14.87697185630296
SKYSAT-C1               
1 41601U 16040C   26063.02735050  .00013497  00000+0  40737-3 0  9999
2 41601  96.9703 100.5072 0003952  64.6363 295.5290 15.34372744541732
SKYSAT-C4               
1 41771U 16058B   26063.15107502  .00023646  00000+0  50003-3 0  9999
2 41771  96.9290  89.5060 0000860  82.9746 277.1602 15.45142845529230
SKYSAT-C5               
1 41772U 16058C   26063.02081027  .00012480  00000+0  37953-3 0  9992
2 41772  97.0623 108.3298 0001878  85.6544 274.4915 15.34158742527621
SKYSAT-C2               
1 41773U 16058D   26063.05382248  .00017629  00000+0  45017-3 0  9995
2 41773  97.0280  89.2282 0005284  81.1583 279.0262 15.39520258528863
SKYSAT-C3               
1 41774U 16058E   26063.06410133  .00030426  00000+0  58203-3 0  9993
2 41774  96.9182  98.1747 0001528 100.8480 259.2944 15.48020744529829
SKYSAT-C11              
1 42987U 17068A   26063.17252293  .00037591  00000+0  62488-3 0  9995
2 42987  97.4189 207.9762 0000763  86.0319 274.1021 15.51981525466922
SKYSAT-C10              
1 42988U 17068B   26062.33327470  .00013622  00000+0  43642-3 0  9993
2 42988  97.4325 198.4163 0001159  90.6134 269.5240 15.32490656466133
SKYSAT-C9               
1 42989U 17068C   26062.79543134  .00020845  00000+0  54646-3 0  9992
2 42989  97.4252 198.8673 0009683 152.1934 207.9831 15.38655720466532
SKYSAT-C8               
1 42990U 17068D   26062.32629177  .00006617  00000+0  20005-3 0  9998
2 42990  97.4350 197.8254 0001258 113.2685 246.8690 15.34560506466064
SKYSAT-C7               
1 42991U 17068E   26062.83784105  .00017270  00000+0  51767-3 0  9994
2 42991  97.4356 199.3239 0007383 121.7201 238.4762 15.34530913466206
SKYSAT-C6               
1 42992U 17068F   26062.82601345  .00015348  00000+0  48994-3 0  9990
2 42992  97.4390 199.6136 0003553 126.2728 233.8842 15.32572793466177
SKYSAT-C12              
1 43797U 18099AR  26063.06081354  .00023634  00000+0  49589-3 0  9996
2 43797  96.9377  90.7179 0004935 152.7288 207.4222 15.45361946405608
SKYSAT-C13              
1 43802U 18099AW  26063.07799748  .00103078  00000+0  67172-3 0  9996
2 43802  96.9414 110.7046 0003410 220.9962 139.1048 15.75591683406285
FLOCK 4Q-16             
1 58271U 23174R   26063.18417959  .00036612  00000+0  79005-3 0  9992
2 58271  97.3873 149.2222 0007878 175.6207 184.5111 15.44433782129343
FLOCK 4Q-11             
1 58273U 23174T   26063.19280900  .00037625  00000+0  80166-3 0  9994
2 58273  97.3913 149.7053 0007574 173.3114 186.8237 15.44806147129356
